{
  "type": "FeatureCollection",
  "features": [
    {
      "type": "Feature",
      "properties": {},
      "geometry": {
        "coordinates": [
          [
            [
              -84.30172718193033,
              30.439866643744665
            ],
            [
              -84.30228041112893,
              30.43984134972679
            ],
            [
              -84.30205618565837,
              30.439115047284446
            ],
            [
              -84.30163497706417,
              30.43903916462712
            ],
            [
              -84.30130597333614,
              30.439055425201886
            ],
            [
              -84.3012032906443,
              30.43920538370341
            ],
            [
              -84.30122424629565,
              30.439536014284144
            ],
            [
              -84.30144428063565,
              30.43977630793745
            ],
            [
              -84.30157839680513,
              30.43985038330517
            ],
            [
              -84.30172718193033,
              30.439866643744665
            ]
          ]
        ],
        "type": "Polygon"
      }
    },
    {
      "type": "Feature",
      "properties": {},
      "geometry": {
        "coordinates": [
          [
            [
              -84.30028489365873,
              30.439872941082186
            ],
            [
              -84.30028489365873,
              30.43978825077808
            ],
            [
              -84.30002294649064,
              30.439785898268696
            ],
            [
              -84.30002294649064,
              30.43987058857489
            ],
            [
              -84.30028489365873,
              30.439872941082186
            ]
          ]
        ],
        "type": "Polygon"
      }
    },
    {
      "type": "Feature",
      "properties": {},
      "geometry": {
        "coordinates": [
          [
            [
              -84.29765790187245,
              30.442128121374708
            ],
            [
              -84.29763475265783,
              30.44148946663482
            ],
            [
              -84.29656988879489,
              30.44148447712844
            ],
            [
              -84.29659303800952,
              30.442183005571366
            ],
            [
              -84.29765790187245,
              30.442128121374708
            ]
          ]
        ],
        "type": "Polygon"
      }
    },
    {
      "type": "Feature",
      "properties": {},
      "geometry": {
        "coordinates": [
          [
            [
              -84.29173217827491,
              30.439563833230565
            ],
            [
              -84.2917206036676,
              30.43887526530378
            ],
            [
              -84.29091616846732,
              30.438880254944266
            ],
            [
              -84.29089880655596,
              30.439563833230565
            ],
            [
              -84.29173217827491,
              30.439563833230565
            ]
          ]
        ],
        "type": "Polygon"
      }
    },
    {
      "type": "Feature",
      "properties": {},
      "geometry": {
        "coordinates": [
          [
            [
              -84.29493706126385,
              30.444421256927868
            ],
            [
              -84.29506438194352,
              30.443812553539942
            ],
            [
              -84.29426573404578,
              30.44375767026125
            ],
            [
              -84.29421943561726,
              30.444376352709384
            ],
            [
              -84.29493706126385,
              30.444421256927868
            ]
          ]
        ],
        "type": "Polygon"
      }
    },
    {
      "type": "Feature",
      "properties": {},
      "geometry": {
        "coordinates": [
          [
            [
              -84.29442777854663,
              30.443433359344795
            ],
            [
              -84.29418471179532,
              30.44311902619623
            ],
            [
              -84.29372751481138,
              30.443148962729907
            ],
            [
              -84.29373908941797,
              30.44347826399766
            ],
            [
              -84.29442777854663,
              30.443433359344795
            ]
          ]
        ],
        "type": "Polygon"
      }
    },
    {
      "type": "Feature",
      "properties": {},
      "geometry": {
        "coordinates": [
          [
            [
              -84.29752459232427,
              30.44050987394874
            ],
            [
              -84.29746622518826,
              30.440382392587438
            ],
            [
              -84.29746622518826,
              30.440244846720844
            ],
            [
              -84.29736116434424,
              30.440244846720844
            ],
            [
              -84.29734949091726,
              30.439963044827678
            ],
            [
              -84.29725221235755,
              30.439963044827678
            ],
            [
              -84.29725221235755,
              30.440516583489085
            ],
            [
              -84.29752459232427,
              30.44050987394874
            ]
          ]
        ],
        "type": "Polygon"
      }
    },
    {
      "type": "Feature",
      "properties": {},
      "geometry": {
        "coordinates": [
          [
            [
              -84.30018485742455,
              30.443178280365572
            ],
            [
              -84.29974354150339,
              30.442343508525923
            ],
            [
              -84.29926929155839,
              30.44255362183837
            ],
            [
              -84.29969743386985,
              30.44338839187965
            ],
            [
              -84.30018485742455,
              30.443178280365572
            ]
          ]
        ],
        "type": "Polygon"
      }
    }
  ]
}
